{
    "links": {
        "self": "http://www.neowsapp.com/rest/v1/neo/3741560?api_key=iIulBulltgU6a56xZRHN4H3l9WmuAYTsLGpBGhQ2"
    },
    "id": "3741560",
    "neo_reference_id": "3741560",
    "name": "(2016 CH29)",
    "designation": "2016 CH29",
    "nasa_jpl_url": "http://ssd.jpl.nasa.gov/sbdb.cgi?sstr=3741560",
    "absolute_magnitude_h": 26.2,
    "estimated_diameter": {
        "kilometers": {
            "estimated_diameter_min": 0.0152951935,
            "estimated_diameter_max": 0.0342010925
        },
        "meters": {
            "estimated_diameter_min": 15.2951935344,
            "estimated_diameter_max": 34.201092472
        },
        "miles": {
            "estimated_diameter_min": 0.0095039897,
            "estimated_diameter_max": 0.021251567
        },
        "feet": {
            "estimated_diameter_min": 50.1810827555,
            "estimated_diameter_max": 112.2083122258
        }
    },
    "is_potentially_hazardous_asteroid": false,
    "close_approach_data": [
        {
            "close_approach_date": "2013-01-03",
            "close_approach_date_full": "2013-Jan-03 13:16",
            "epoch_date_close_approach": 1357218960000,
            "relative_velocity": {
                "kilometers_per_second": "15.6033145004",
                "kilometers_per_hour": "56171.9322014774",
                "miles_per_hour": "34903.054205968"
            },
            "miss_distance": {
                "astronomical": "0.0602242415",
                "lunar": "23.4272299435",
                "kilometers": "9009418.250765605",
                "miles": "5598192.909371149"
            },
            "orbiting_body": "Mars"
        },
        {
            "close_approach_date": "2016-01-29",
            "close_approach_date_full": "2016-Jan-29 15:04",
            "epoch_date_close_approach": 1454079840000,
            "relative_velocity": {
                "kilometers_per_second": "15.1948113744",
                "kilometers_per_hour": "54701.3209477698",
                "miles_per_hour": "33989.2735633517"
            },
            "miss_distance": {
                "astronomical": "0.0109036462",
                "lunar": "4.2415183718",
                "kilometers": "1631162.246753594",
                "miles": "1013557.2208598372"
            },
            "orbiting_body": "Earth"
        }
    ],
    "orbital_data": {
        "orbit_id": "4",
        "orbit_determination_date": "2017-04-06 08:28:43",
        "first_observation_date": "2016-02-03",
        "last_observation_date": "2016-02-13",
        "data_arc_in_days": 10,
        "observations_used": 27,
        "orbit_uncertainty": "8",
        "minimum_orbit_intersection": ".00342177",
        "jupiter_tisserand_invariant": "3.634",
        "epoch_osculation": "2457423.5",
        "eccentricity": ".6056373546460243",
        "semi_major_axis": "1.957093058499333",
        "inclination": "1.756088211645597",
        "ascending_node_longitude": "301.4688229111283",
        "orbital_period": "1000.036017046083",
        "perihelion_distance": ".7718043957537002",
        "perihelion_argument": "121.8326527116978",
        "aphelion_distance": "3.142381721244966",
        "perihelion_time": "2457375.104115655360",
        "mean_anomaly": "17.42189087902376",
        "mean_motion": ".3599870343303953",
        "equinox": "J2000",
        "orbit_class": {
            "orbit_class_type": "APO",
            "orbit_class_description": "Near-Earth asteroid orbits which cross the Earth’s orbit similar to that of 1862 Apollo",
            "orbit_class_range": "a (semi-major axis) > 1.0 AU; q (perihelion) < 1.017 AU"
        }
    },
    "is_sentry_object": false
}